{
    "links": {
        "self": "http://www.neowsapp.com/rest/v1/neo/3735469?api_key=iIulBulltgU6a56xZRHN4H3l9WmuAYTsLGpBGhQ2"
    },
    "id": "3735469",
    "neo_reference_id": "3735469",
    "name": "(2015 WZ1)",
    "designation": "2015 WZ1",
    "nasa_jpl_url": "http://ssd.jpl.nasa.gov/sbdb.cgi?sstr=3735469",
    "absolute_magnitude_h": 29.6,
    "estimated_diameter": {
        "kilometers": {
            "estimated_diameter_min": 0.0031956189,
            "estimated_diameter_max": 0.007145621
        },
        "meters": {
            "estimated_diameter_min": 3.1956188672,
            "estimated_diameter_max": 7.1456210173
        },
        "miles": {
            "estimated_diameter_min": 0.0019856649,
            "estimated_diameter_max": 0.0044400817
        },
        "feet": {
            "estimated_diameter_min": 10.4843142043,
            "estimated_diameter_max": 23.4436392583
        }
    },
    "is_potentially_hazardous_asteroid": false,
    "close_approach_data": [
        {
            "close_approach_date": "2015-11-22",
            "close_approach_date_full": "2015-Nov-22 13:35",
            "epoch_date_close_approach": 1448199300000,
            "relative_velocity": {
                "kilometers_per_second": "17.1139340347",
                "kilometers_per_hour": "61610.1625249056",
                "miles_per_hour": "38282.1590422115"
            },
            "miss_distance": {
                "astronomical": "0.00497555",
                "lunar": "1.93548895",
                "kilometers": "744331.6820785",
                "miles": "462506.2605433"
            },
            "orbiting_body": "Moon"
        },
        {
            "close_approach_date": "2015-11-22",
            "close_approach_date_full": "2015-Nov-22 17:59",
            "epoch_date_close_approach": 1448215140000,
            "relative_velocity": {
                "kilometers_per_second": "16.5023003346",
                "kilometers_per_hour": "59408.2812044005",
                "miles_per_hour": "36913.9956183676"
            },
            "miss_distance": {
                "astronomical": "0.0040763276",
                "lunar": "1.5856914364",
                "kilometers": "609809.926382212",
                "miles": "378918.3175780456"
            },
            "orbiting_body": "Earth"
        }
    ],
    "orbital_data": {
        "orbit_id": "4",
        "orbit_determination_date": "2017-04-06 08:30:28",
        "first_observation_date": "2015-11-21",
        "last_observation_date": "2015-11-22",
        "data_arc_in_days": 1,
        "observations_used": 27,
        "orbit_uncertainty": "7",
        "minimum_orbit_intersection": ".00369869",
        "jupiter_tisserand_invariant": "3.300",
        "epoch_osculation": "2459000.5",
        "eccentricity": ".6614113969514448",
        "semi_major_axis": "2.243194687587381",
        "inclination": "5.77560145421449",
        "ascending_node_longitude": "58.39936428591182",
        "orbital_period": "1227.153466521313",
        "perihelion_distance": ".7595201556361516",
        "perihelion_argument": "67.26771662451861",
        "aphelion_distance": "3.726869219538611",
        "perihelion_time": "2458615.175555912019",
        "mean_anomaly": "113.0394882596894",
        "mean_motion": ".2933618408955107",
        "equinox": "J2000",
        "orbit_class": {
            "orbit_class_type": "APO",
            "orbit_class_description": "Near-Earth asteroid orbits which cross the Earth’s orbit similar to that of 1862 Apollo",
            "orbit_class_range": "a (semi-major axis) > 1.0 AU; q (perihelion) < 1.017 AU"
        }
    },
    "is_sentry_object": false
}